[
    {
        "Altitude(m)": 553719.6585383976,
        "Argument of Periapsis(deg)": 0.013245982221427002,
        "Eccentricity": 0.0,
        "Inclination(deg)": 53.0,
        "Latitude(deg)": 18.862356557412465,
        "Longitude(deg)": -141.74157721080365,
        "Mean Anomaly(deg)": 23.819585735155197,
        "RAAN(deg)": 304.9802867370561,
        "Satellite Name": "Starlink Shell 1 1342",
        "Satellite Number": 1342,
        "Semi-Major Axis(m)": 6931778.249405717,
        "Time(s)": 380
    },
    {
        "Altitude(m)": 553755.0557604562,
        "Argument of Periapsis(deg)": 0.013594560700938237,
        "Eccentricity": 0.0,
        "Inclination(deg)": 53.0,
        "Latitude(deg)": 19.348697378045085,
        "Longitude(deg)": -141.3611694452657,
        "Mean Anomaly(deg)": 24.446416938711895,
        "RAAN(deg)": 304.9797679669786,
        "Satellite Name": "Starlink Shell 1 1342",
        "Satellite Number": 1342,
        "Semi-Major Axis(m)": 6931778.249405717,
        "Time(s)": 390
    },
    {
        "Altitude(m)": 553792.5898415467,
        "Argument of Periapsis(deg)": 0.013943139180449475,
        "Eccentricity": 0.0,
        "Inclination(deg)": 53.0,
        "Latitude(deg)": 19.834033003830605,
        "Longitude(deg)": -140.97825845646832,
        "Mean Anomaly(deg)": 25.07324814226859,
        "RAAN(deg)": 304.9792491969011,
        "Satellite Name": "Starlink Shell 1 1342",
        "Satellite Number": 1342,
        "Semi-Major Axis(m)": 6931778.249405717,
        "Time(s)": 400
    },
    {
        "Altitude(m)": 553832.2211477932,
        "Argument of Periapsis(deg)": 0.014291717659960712,
        "Eccentricity": 0.0,
        "Inclination(deg)": 53.0,
        "Latitude(deg)": 20.3183301815224,
        "Longitude(deg)": -140.59276593430877,
        "Mean Anomaly(deg)": 25.700079345825337,
        "RAAN(deg)": 304.97873042682363,
        "Satellite Name": "Starlink Shell 1 1342",
        "Satellite Number": 1342,
        "Semi-Major Axis(m)": 6931778.249405717,
        "Time(s)": 410
    },
    {
        "Altitude(m)": 553873.9091460599,
        "Argument of Periapsis(deg)": 0.014640296139471948,
        "Eccentricity": 0.0,
        "Inclination(deg)": 53.0,
        "Latitude(deg)": 20.801555064287385,
        "Longitude(deg)": -140.20461302594492,
        "Mean Anomaly(deg)": 26.326910549382028,
        "RAAN(deg)": 304.97821165674617,
        "Satellite Name": "Starlink Shell 1 1342",
        "Satellite Number": 1342,
        "Semi-Major Axis(m)": 6931778.249405717,
        "Time(s)": 420
    },
    {
        "Altitude(m)": 553917.6124265225,
        "Argument of Periapsis(deg)": 0.014988874618983185,
        "Eccentricity": 0.0,
        "Inclination(deg)": 53.0,
        "Latitude(deg)": 21.283673190343624,
        "Longitude(deg)": -139.81371980688695,
        "Mean Anomaly(deg)": 26.953741752938775,
        "RAAN(deg)": 304.9776928866687,
        "Satellite Name": "Starlink Shell 1 1342",
        "Satellite Number": 1342,
        "Semi-Major Axis(m)": 6931778.249405717,
        "Time(s)": 430
    },
    {
        "Altitude(m)": 553963.2887256227,
        "Argument of Periapsis(deg)": 0.015337453098494424,
        "Eccentricity": 0.0,
        "Inclination(deg)": 53.0,
        "Latitude(deg)": 21.7646494611134,
        "Longitude(deg)": -139.42000475261918,
        "Mean Anomaly(deg)": 27.580572956495473,
        "RAAN(deg)": 304.97717411659124,
        "Satellite Name": "Starlink Shell 1 1342",
        "Satellite Number": 1342,
        "Semi-Major Axis(m)": 6931778.249405717,
        "Time(s)": 440
    },
    {
        "Altitude(m)": 554010.8949494519,
        "Argument of Periapsis(deg)": 0.01568603157800566,
        "Eccentricity": 0.0,
        "Inclination(deg)": 53.0,
        "Latitude(deg)": 22.244448118885384,
        "Longitude(deg)": -139.02338572369865,
        "Mean Anomaly(deg)": 28.207404160052167,
        "RAAN(deg)": 304.9766553465137,
        "Satellite Name": "Starlink Shell 1 1342",
        "Satellite Number": 1342,
        "Semi-Major Axis(m)": 6931778.249405717,
        "Time(s)": 450
    },
    {
        "Altitude(m)": 554060.3871975116,
        "Argument of Periapsis(deg)": 0.0160346100575169,
        "Eccentricity": 0.0,
        "Inclination(deg)": 53.0,
        "Latitude(deg)": 22.723032723972285,
        "Longitude(deg)": -138.6237794386686,
        "Mean Anomaly(deg)": 28.834235363608915,
        "RAAN(deg)": 304.97613657643626,
        "Satellite Name": "Starlink Shell 1 1342",
        "Satellite Number": 1342,
        "Semi-Major Axis(m)": 6931778.249405717,
        "Time(s)": 460
    },
    {
        "Altitude(m)": 554111.7207868104,
        "Argument of Periapsis(deg)": 0.016383188537028134,
        "Eccentricity": 0.0,
        "Inclination(deg)": 53.0,
        "Latitude(deg)": 23.200366131359594,
        "Longitude(deg)": -138.221100947749,
        "Mean Anomaly(deg)": 29.46106656716561,
        "RAAN(deg)": 304.9756178063588,
        "Satellite Name": "Starlink Shell 1 1342",
        "Satellite Number": 1342,
        "Semi-Major Axis(m)": 6931778.249405717,
        "Time(s)": 470
    },
    {
        "Altitude(m)": 554164.8502763656,
        "Argument of Periapsis(deg)": 0.01673176701653937,
        "Eccentricity": 0.0,
        "Inclination(deg)": 53.0,
        "Latitude(deg)": 23.676410466840178,
        "Longitude(deg)": -137.81526462027338,
        "Mean Anomaly(deg)": 30.087897770722307,
        "RAAN(deg)": 304.97509903628134,
        "Satellite Name": "Starlink Shell 1 1342",
        "Satellite Number": 1342,
        "Semi-Major Axis(m)": 6931778.249405717,
        "Time(s)": 480
    },
    {
        "Altitude(m)": 554219.7294919975,
        "Argument of Periapsis(deg)": 0.017080345496050607,
        "Eccentricity": 0.0,
        "Inclination(deg)": 53.0,
        "Latitude(deg)": 24.15112710262544,
        "Longitude(deg)": -137.40618362023235,
        "Mean Anomaly(deg)": 30.714728974279055,
        "RAAN(deg)": 304.9745802662038,
        "Satellite Name": "Starlink Shell 1 1342",
        "Satellite Number": 1342,
        "Semi-Major Axis(m)": 6931778.249405717,
        "Time(s)": 490
    },
    {
        "Altitude(m)": 554276.3115515097,
        "Argument of Periapsis(deg)": 0.017428923975561842,
        "Eccentricity": 0.0,
        "Inclination(deg)": 53.0,
        "Latitude(deg)": 24.624476632429364,
        "Longitude(deg)": -136.99376938291107,
        "Mean Anomaly(deg)": 31.34156017783575,
        "RAAN(deg)": 304.97406149612635,
        "Satellite Name": "Starlink Shell 1 1342",
        "Satellite Number": 1342,
        "Semi-Major Axis(m)": 6931778.249405717,
        "Time(s)": 500
    },
    {
        "Altitude(m)": 554334.5488901228,
        "Argument of Periapsis(deg)": 0.01777750245507308,
        "Eccentricity": 0.0,
        "Inclination(deg)": 53.0,
        "Latitude(deg)": 25.096418846026587,
        "Longitude(deg)": -136.5779326056141,
        "Mean Anomaly(deg)": 31.968391381392497,
        "RAAN(deg)": 304.97354272604895,
        "Satellite Name": "Starlink Shell 1 1342",
        "Satellite Number": 1342,
        "Semi-Major Axis(m)": 6931778.249405717,
        "Time(s)": 510
    },
    {
        "Altitude(m)": 554394.3932862655,
        "Argument of Periapsis(deg)": 0.018126080934584315,
        "Eccentricity": 0.0,
        "Inclination(deg)": 53.0,
        "Latitude(deg)": 25.56691270327588,
        "Longitude(deg)": -136.1585827268683,
        "Mean Anomaly(deg)": 32.59522258494914,
        "RAAN(deg)": 304.9730239559714,
        "Satellite Name": "Starlink Shell 1 1342",
        "Satellite Number": 1342,
        "Semi-Major Axis(m)": 6931778.249405717,
        "Time(s)": 520
    },
    {
        "Altitude(m)": 554455.7958876169,
        "Argument of Periapsis(deg)": 0.018474659414095554,
        "Eccentricity": 0.0,
        "Inclination(deg)": 53.0,
        "Latitude(deg)": 26.035916307612936,
        "Longitude(deg)": -135.73562740711657,
        "Mean Anomaly(deg)": 33.22205378850589,
        "RAAN(deg)": 304.97250518589397,
        "Satellite Name": "Starlink Shell 1 1342",
        "Satellite Number": 1342,
        "Semi-Major Axis(m)": 6931778.249405717,
        "Time(s)": 530
    },
    {
        "Altitude(m)": 554518.7072374495,
        "Argument of Periapsis(deg)": 0.018823237893606792,
        "Eccentricity": 0.0,
        "Inclination(deg)": 53.0,
        "Latitude(deg)": 26.50338687901495,
        "Longitude(deg)": -135.30897352393075,
        "Mean Anomaly(deg)": 33.84888499206263,
        "RAAN(deg)": 304.97198641581645,
        "Satellite Name": "Starlink Shell 1 1342",
        "Satellite Number": 1342,
        "Semi-Major Axis(m)": 6931778.249405717,
        "Time(s)": 540
    },
    {
        "Altitude(m)": 554583.0773012101,
        "Argument of Periapsis(deg)": 0.019171816373118027,
        "Eccentricity": 0.0,
        "Inclination(deg)": 53.0,
        "Latitude(deg)": 26.969280726436473,
        "Longitude(deg)": -134.87852665616327,
        "Mean Anomaly(deg)": 34.47571619561933,
        "RAAN(deg)": 304.971467645739,
        "Satellite Name": "Starlink Shell 1 1342",
        "Satellite Number": 1342,
        "Semi-Major Axis(m)": 6931778.249405717,
        "Time(s)": 550
    },
    {
        "Altitude(m)": 554648.8554933743,
        "Argument of Periapsis(deg)": 0.019520394852629266,
        "Eccentricity": 0.0,
        "Inclination(deg)": 53.0,
        "Latitude(deg)": 27.43355321972487,
        "Longitude(deg)": -134.4441905700874,
        "Mean Anomaly(deg)": 35.102547399176075,
        "RAAN(deg)": 304.9709488756616,
        "Satellite Name": "Starlink Shell 1 1342",
        "Satellite Number": 1342,
        "Semi-Major Axis(m)": 6931778.249405717,
        "Time(s)": 560
    }
]